[{"OBJECT_NAME":"STARLINK-36810","OBJECT_ID":"2026-035V","EPOCH":"2026-03-21T12:00:00.999648","MEAN_MOTION":15.751584,"ECCENTRICITY":0.00019157,"INCLINATION":97.2881,"RA_OF_ASC_NODE":13.5203,"ARG_OF_PERICENTER":116.0564,"MEAN_ANOMALY":313.2546,"EPHEMERIS_TYPE":0,"CLASSIFICATION_TYPE":"U","NORAD_CAT_ID":67898,"ELEMENT_SET_NO":999,"REV_AT_EPOCH":565,"BSTAR":0.00021377634,"MEAN_MOTION_DOT":0.00031833,"MEAN_MOTION_DDOT":0},{"OBJECT_NAME":"STARLINK-36878","OBJECT_ID":"2026-035W","EPOCH":"2026-03-21T12:54:28.677888","MEAN_MOTION":15.80872366,"ECCENTRICITY":0.00018115,"INCLINATION":97.2901,"RA_OF_ASC_NODE":13.5905,"ARG_OF_PERICENTER":64.8319,"MEAN_ANOMALY":295.3137,"EPHEMERIS_TYPE":0,"CLASSIFICATION_TYPE":"U","NORAD_CAT_ID":67899,"ELEMENT_SET_NO":999,"REV_AT_EPOCH":571,"BSTAR":0.0012970743,"MEAN_MOTION_DOT":0.00256413,"MEAN_MOTION_DDOT":0},{"OBJECT_NAME":"STARLINK-36361","OBJECT_ID":"2026-035X","EPOCH":"2026-03-21T12:53:23.141760","MEAN_MOTION":15.80861508,"ECCENTRICITY":0.00016522,"INCLINATION":97.2893,"RA_OF_ASC_NODE":13.5925,"ARG_OF_PERICENTER":138.4601,"MEAN_ANOMALY":221.6793,"EPHEMERIS_TYPE":0,"CLASSIFICATION_TYPE":"U","NORAD_CAT_ID":67900,"ELEMENT_SET_NO":999,"REV_AT_EPOCH":571,"BSTAR":0.0012254861,"MEAN_MOTION_DOT":0.0024172,"MEAN_MOTION_DDOT":0},{"OBJECT_NAME":"STARLINK-36336","OBJECT_ID":"2026-035Y","EPOCH":"2026-03-21T12:00:00.999648","MEAN_MOTION":15.75149986,"ECCENTRICITY":0.0001686,"INCLINATION":97.2876,"RA_OF_ASC_NODE":13.537,"ARG_OF_PERICENTER":76.7797,"MEAN_ANOMALY":26.5345,"EPHEMERIS_TYPE":0,"CLASSIFICATION_TYPE":"U","NORAD_CAT_ID":67901,"ELEMENT_SET_NO":999,"REV_AT_EPOCH":570,"BSTAR":0.00029092728,"MEAN_MOTION_DOT":0.0004341,"MEAN_MOTION_DDOT":0},{"OBJECT_NAME":"STARLINK-36876","OBJECT_ID":"2026-035Z","EPOCH":"2026-03-21T12:52:18.792768","MEAN_MOTION":15.80933911,"ECCENTRICITY":0.00022561,"INCLINATION":97.2888,"RA_OF_ASC_NODE":13.5943,"ARG_OF_PERICENTER":58.2432,"MEAN_ANOMALY":301.9056,"EPHEMERIS_TYPE":0,"CLASSIFICATION_TYPE":"U","NORAD_CAT_ID":67902,"ELEMENT_SET_NO":999,"REV_AT_EPOCH":571,"BSTAR":0.002048633,"MEAN_MOTION_DOT":0.00413679,"MEAN_MOTION_DDOT":0},{"OBJECT_NAME":"STARLINK-36257","OBJECT_ID":"2026-035AA","EPOCH":"2026-03-21T08:55:12.876384","MEAN_MOTION":15.75308343,"ECCENTRICITY":0.00016415,"INCLINATION":97.2876,"RA_OF_ASC_NODE":13.3596,"ARG_OF_PERICENTER":89.9841,"MEAN_ANOMALY":270.1612,"EPHEMERIS_TYPE":0,"CLASSIFICATION_TYPE":"U","NORAD_CAT_ID":67903,"ELEMENT_SET_NO":999,"REV_AT_EPOCH":568,"BSTAR":0.0015732138,"MEAN_MOTION_DOT":0.00242551,"MEAN_MOTION_DDOT":0},{"OBJECT_NAME":"STARLINK-36814","OBJECT_ID":"2026-036A","EPOCH":"2026-03-21T00:05:58.535808","MEAN_MOTION":15.50636108,"ECCENTRICITY":0.0001533,"INCLINATION":43.0008,"RA_OF_ASC_NODE":183.0235,"ARG_OF_PERICENTER":279.4884,"MEAN_ANOMALY":80.5803,"EPHEMERIS_TYPE":0,"CLASSIFICATION_TYPE":"U","NORAD_CAT_ID":67904,"ELEMENT_SET_NO":999,"REV_AT_EPOCH":543,"BSTAR":0.0014765689,"MEAN_MOTION_DOT":0.00087433,"MEAN_MOTION_DDOT":0},{"OBJECT_NAME":"STARLINK-36729","OBJECT_ID":"2026-036B","EPOCH":"2026-03-21T12:53:15.911808","MEAN_MOTION":15.50657626,"ECCENTRICITY":0.00038286,"INCLINATION":42.9982,"RA_OF_ASC_NODE":179.2593,"ARG_OF_PERICENTER":235.2993,"MEAN_ANOMALY":124.7507,"EPHEMERIS_TYPE":0,"CLASSIFICATION_TYPE":"U","NORAD_CAT_ID":67905,"ELEMENT_SET_NO":999,"REV_AT_EPOCH":552,"BSTAR":0.0022520354,"MEAN_MOTION_DOT":0.00134466,"MEAN_MOTION_DDOT":0},{"OBJECT_NAME":"STARLINK-36763","OBJECT_ID":"2026-036C","EPOCH":"2026-03-21T00:00:00.999648","MEAN_MOTION":15.50983574,"ECCENTRICITY":0.00014719,"INCLINATION":43.0005,"RA_OF_ASC_NODE":182.3255,"ARG_OF_PERICENTER":274.0677,"MEAN_ANOMALY":354.6883,"EPHEMERIS_TYPE":0,"CLASSIFICATION_TYPE":"U","NORAD_CAT_ID":67906,"ELEMENT_SET_NO":999,"REV_AT_EPOCH":546,"BSTAR":-0.038553266,"MEAN_MOTION_DOT":-0.02044709,"MEAN_MOTION_DDOT":0},{"OBJECT_NAME":"STARLINK-36742","OBJECT_ID":"2026-036D","EPOCH":"2026-03-21T14:23:37.453920","MEAN_MOTION":15.50601627,"ECCENTRICITY":0.00012883,"INCLINATION":43.0004,"RA_OF_ASC_NODE":178.8698,"ARG_OF_PERICENTER":279.4925,"MEAN_ANOMALY":80.5789,"EPHEMERIS_TYPE":0,"CLASSIFICATION_TYPE":"U","NORAD_CAT_ID":67907,"ELEMENT_SET_NO":999,"REV_AT_EPOCH":553,"BSTAR":0.0010206915,"MEAN_MOTION_DOT":0.00060046,"MEAN_MOTION_DDOT":0},{"OBJECT_NAME":"STARLINK-36827","OBJECT_ID":"2026-036E","EPOCH":"2026-03-21T12:00:00.999648","MEAN_MOTION":15.46578161,"ECCENTRICITY":0.00012412,"INCLINATION":43.0003,"RA_OF_ASC_NODE":179.1595,"ARG_OF_PERICENTER":272.6287,"MEAN_ANOMALY":9.9789,"EPHEMERIS_TYPE":0,"CLASSIFICATION_TYPE":"U","NORAD_CAT_ID":67908,"ELEMENT_SET_NO":999,"REV_AT_EPOCH":554,"BSTAR":-0.04141728,"MEAN_MOTION_DOT":-0.01895494,"MEAN_MOTION_DDOT":0},{"OBJECT_NAME":"STARLINK-36822","OBJECT_ID":"2026-036F","EPOCH":"2026-03-21T00:00:00.999648","MEAN_MOTION":15.50604491,"ECCENTRICITY":0.00016157,"INCLINATION":43.0004,"RA_OF_ASC_NODE":182.3179,"ARG_OF_PERICENTER":272.0411,"MEAN_ANOMALY":359.6707,"EPHEMERIS_TYPE":0,"CLASSIFICATION_TYPE":"U","NORAD_CAT_ID":67909,"ELEMENT_SET_NO":999,"REV_AT_EPOCH":546,"BSTAR":-0.0017000658,"MEAN_MOTION_DOT":-0.00098918,"MEAN_MOTION_DDOT":0},{"OBJECT_NAME":"STARLINK-36847","OBJECT_ID":"2026-036G","EPOCH":"2026-03-21T00:00:00.999648","MEAN_MOTION":15.50604191,"ECCENTRICITY":0.00012997,"INCLINATION":43.0005,"RA_OF_ASC_NODE":182.3644,"ARG_OF_PERICENTER":297.1672,"MEAN_ANOMALY":315.5191,"EPHEMERIS_TYPE":0,"CLASSIFICATION_TYPE":"U","NORAD_CAT_ID":67910,"ELEMENT_SET_NO":999,"REV_AT_EPOCH":546,"BSTAR":-0.0016887909,"MEAN_MOTION_DOT":-0.00098268,"MEAN_MOTION_DDOT":0},{"OBJECT_NAME":"STARLINK-36736","OBJECT_ID":"2026-036H","EPOCH":"2026-03-21T12:00:00.999648","MEAN_MOTION":15.44094727,"ECCENTRICITY":0.00018068,"INCLINATION":42.9994,"RA_OF_ASC_NODE":178.9224,"ARG_OF_PERICENTER":271.7624,"MEAN_ANOMALY":105.79,"EPHEMERIS_TYPE":0,"CLASSIFICATION_TYPE":"U","NORAD_CAT_ID":67911,"ELEMENT_SET_NO":999,"REV_AT_EPOCH":554,"BSTAR":-0.046178705,"MEAN_MOTION_DOT":-0.01935184,"MEAN_MOTION_DDOT":0},{"OBJECT_NAME":"STARLINK-36676","OBJECT_ID":"2026-036J","EPOCH":"2026-03-21T12:00:00.999648","MEAN_MOTION":15.48448757,"ECCENTRICITY":0.000158,"INCLINATION":42.9998,"RA_OF_ASC_NODE":179.0139,"ARG_OF_PERICENTER":275.8591,"MEAN_ANOMALY":64.9885,"EPHEMERIS_TYPE":0,"CLASSIFICATION_TYPE":"U","NORAD_CAT_ID":67912,"ELEMENT_SET_NO":999,"REV_AT_EPOCH":554,"BSTAR":-0.040379177,"MEAN_MOTION_DOT":-0.01965511,"MEAN_MOTION_DDOT":0},{"OBJECT_NAME":"STARLINK-36690","OBJECT_ID":"2026-036K","EPOCH":"2026-03-21T12:00:00.999648","MEAN_MOTION":15.49367486,"ECCENTRICITY":0.00011469,"INCLINATION":42.9997,"RA_OF_ASC_NODE":178.9966,"ARG_OF_PERICENTER":279.3755,"MEAN_ANOMALY":68.2865,"EPHEMERIS_TYPE":0,"CLASSIFICATION_TYPE":"U","NORAD_CAT_ID":67913,"ELEMENT_SET_NO":999,"REV_AT_EPOCH":554,"BSTAR":-0.037593507,"MEAN_MOTION_DOT":-0.01897893,"MEAN_MOTION_DDOT":0}]
