STARLINK-36810          
1 67898U 26035V   26080.50001157  .00031833  00000+0  21378-3 0  9990
2 67898  97.2881  13.5203 0001915 116.0564 313.2546 15.75158400  5654
STARLINK-36878          
1 67899U 26035W   26080.53783192  .00256413  00000+0  12971-2 0  9991
2 67899  97.2901  13.5905 0001811  64.8319 295.3137 15.80872366  5713
STARLINK-36361          
1 67900U 26035X   26080.53707340  .00241720  00000+0  12255-2 0  9995
2 67900  97.2893  13.5925 0001652 138.4601 221.6793 15.80861508  5719
STARLINK-36336          
1 67901U 26035Y   26080.50001157  .00043410  00000+0  29093-3 0  9991
2 67901  97.2876  13.5370 0001686  76.7797  26.5345 15.75149986  5709
STARLINK-36876          
1 67902U 26035Z   26080.53632862  .00413679  00000+0  20486-2 0  9992
2 67902  97.2888  13.5943 0002256  58.2432 301.9056 15.80933911  5719
STARLINK-36257          
1 67903U 26035AA  26080.37167681  .00242551  00000+0  15732-2 0  9994
2 67903  97.2876  13.3596 0001641  89.9841 270.1612 15.75308343  5681
STARLINK-36814          
1 67904U 26036A   26080.00414972  .00087433  00000+0  14766-2 0  9996
2 67904  43.0008 183.0235 0001533 279.4884  80.5803 15.50636108  5430
STARLINK-36729          
1 67905U 26036B   26080.53698972  .00134466  00000+0  22520-2 0  9995
2 67905  42.9982 179.2593 0003828 235.2993 124.7507 15.50657626  5524
STARLINK-36763          
1 67906U 26036C   26080.00001157 -.02044709  00000+0 -38553-1 0  9997
2 67906  43.0005 182.3255 0001471 274.0677 354.6883 15.50983574  5463
STARLINK-36742          
1 67907U 26036D   26080.59973905  .00060046  00000+0  10207-2 0  9996
2 67907  43.0004 178.8698 0001288 279.4925  80.5789 15.50601627  5539
STARLINK-36827          
1 67908U 26036E   26080.50001157 -.01895494  00000+0 -41417-1 0  9991
2 67908  43.0003 179.1595 0001241 272.6287   9.9789 15.46578161  5541
STARLINK-36822          
1 67909U 26036F   26080.00001157 -.00098918  00000+0 -17001-2 0  9995
2 67909  43.0004 182.3179 0001615 272.0411 359.6707 15.50604491  5462
STARLINK-36847          
1 67910U 26036G   26080.00001157 -.00098268  00000+0 -16888-2 0  9997
2 67910  43.0005 182.3644 0001299 297.1672 315.5191 15.50604191  5462
STARLINK-36736          
1 67911U 26036H   26080.50001157 -.01935184  00000+0 -46179-1 0  9996
2 67911  42.9994 178.9224 0001806 271.7624 105.7900 15.44094727  5549
STARLINK-36676          
1 67912U 26036J   26080.50001157 -.01965511  00000+0 -40379-1 0  9990
2 67912  42.9998 179.0139 0001580 275.8591  64.9885 15.48448757  5546
STARLINK-36690          
1 67913U 26036K   26080.50001157 -.01897893  00000+0 -37594-1 0  9993
2 67913  42.9997 178.9966 0001146 279.3755  68.2865 15.49367486  5546
